COSMOS 2576             
1 59773U 24092A   26068.82603826  .00015211  00000+0  56283-3 0  9991
2 59773  97.4253 186.0053 0005946 159.7731 200.3745 15.27760963101271
STARLINK-34054          
1 64141U 25111U   26068.42419102  .00020027  00000+0  73505-3 0  9994
2 64141  43.0041  79.2911 0001442 268.6319  91.4367 15.27592397 45420
